ONEWEB-0201             
1 48241U 21031AH  21185.91667824 -.00996953  00000-0 -40001+0 0  9993
2 48241  87.7003 290.7765 0011604  20.4990 117.1131 14.31557050  3524
ONEWEB-0207             
1 48242U 21031AJ  21185.91667824 -.00974194  00000-0 -43734+0 0  9993
2 48242  87.6617 290.7405 0010112  39.8525 185.2464 14.25679161  3501
ONEWEB-0208             
1 48243U 21031AK  21185.91667824 -.00977884  00000-0 -41184+0 0  9990
2 48243  87.6661 290.7131 0008727  37.8278  93.4616 14.29016243  3496
ONEWEB-0200             
1 48244U 21031AL  21185.91667824 -.01209673  00000-0 -64936+0 0  9996
2 48244  87.6006 290.7099 0011690  32.3159 200.2075 14.16371967  3483
ONEWEB-0217             
1 48245U 21031AM  21185.91667824 -.01191547  00000-0 -69283+0 0  9997
2 48245  87.5658 290.6718 0009241  50.6317 213.5128 14.12008823  3470
ONEWEB-0211             
1 48767U 21045A   21185.91667824 -.00965805  00000-0 -64898-1 0  9995
2 48767  87.4675 263.6053 0009200 130.6218 174.8668 15.09790405  3629
ONEWEB-0223             
1 48768U 21045B   21185.91667824 -.00986318  00000-0 -68104-1 0  9992
2 48768  87.4761 263.5838 0013312 111.7581  38.0716 15.08804973  3640
ONEWEB-0230             
1 48769U 21045C   21185.91667824 -.00834933  00000-0 -36705-1 0  9990
2 48769  87.4780 263.5021 0009492 119.4124 245.3760 15.24599242  3626
ONEWEB-0237             
1 48770U 21045D   21185.91667824 -.01020710  00000-0 -88949-1 0  9990
2 48770  87.4386 263.6561 0013528 124.8047 336.9039 14.99746011  3624
ONEWEB-0235             
1 48771U 21045E   21185.91667824 -.00968198  00000-0 -77507-1 0  9999
2 48771  87.4306 263.6637 0008131 128.9115 137.1241 15.02889022  3616
ONEWEB-0242             
1 48772U 21045F   21185.91667824 -.00962642  00000-0 -62021-1 0  9993
2 48772  87.4679 263.5779 0012298 129.8991 321.9858 15.11256102  3633
ONEWEB-0241             
1 48773U 21045G   21185.91667824 -.00995295  00000-0 -77066-1 0  9999
2 48773  87.4433 263.6296 0009636 115.7422 272.9763 15.04193903  3622
ONEWEB-0243             
1 48774U 21045H   21185.91667824 -.01010897  00000-0 -85582-1 0  9999
2 48774  87.4426 263.6727 0013022 127.8625 338.9761 15.00828198  3614
ONEWEB-0222             
1 48775U 21045J   21185.91667824 -.00989646  00000-0 -73093-1 0  9990
2 48775  87.4625 263.6063 0012620 126.5827 221.7699 15.06358151  3647
ONEWEB-0244             
1 48776U 21045K   21185.91667824 -.00956770  00000-0 -54355-1 0  9993
2 48776  87.4910 263.5711 0008113 116.9900 218.3459 15.15767270  3632
ONEWEB-0247             
1 48777U 21045L   21185.91667824 -.01043176  00000-0 -81639-1 0  9997
2 48777  87.4466 263.6283 0009464 115.7158 280.5704 15.03926772  3619
ONEWEB-0245             
1 48778U 21045M   21185.91667824 -.01004176  00000-0 -86719-1 0  9999
2 48778  87.4414 263.6661 0013450 122.9781   9.7542 15.00047196  3606
ONEWEB-0229             
1 48779U 21045N   21185.91667824 -.01002212  00000-0 -79059-1 0  9998
2 48779  87.4538 263.6380 0008811 127.6261 303.0509 15.03526008  3635
ONEWEB-0228             
1 48780U 21045P   21185.91667824 -.01018592  00000-0 -85627-1 0  9996
2 48780  87.4411 263.6534 0011823 114.8690 107.5401 15.01134396  3629
ONEWEB-0232             
1 48781U 21045Q   21185.91667824 -.00799732  00000-0 -30039-1 0  9995
2 48781  87.4700 263.4659 0011952 133.3748 127.7384 15.29623324  3628
ONEWEB-0231             
1 48782U 21045R   21185.91667824 -.01014304  00000-0 -77536-1 0  9995
2 48782  87.4510 263.6131 0010121 130.6532  49.4129 15.04717940  3632
ONEWEB-0234             
1 48783U 21045S   21185.91667824 -.00980964  00000-0 -74588-1 0  9993
2 48783  87.4515 263.6382 0010827 113.3809 258.3909 15.05282028  3636
ONEWEB-0238             
1 48784U 21045T   21185.91667824 -.00979432  00000-0 -73010-1 0  9991
2 48784  87.4604 263.6165 0011998 129.2136 159.7024 15.05994500  3620
ONEWEB-0240             
1 48785U 21045U   21185.91667824 -.00042396  00000-0 -28010-2 0  9993
2 48785  87.4694 263.6270 0009452 122.2259  41.7434 15.07680148  3603
ONEWEB-0246             
1 48786U 21045V   21185.91667824 -.00997802  00000-0 -94145-1 0  9996
2 48786  87.4208 263.6896 0008537 134.7438  29.3436 14.96688502  3602
ONEWEB-0210             
1 48787U 21045W   21185.91667824 -.01010151  00000-0 -85903-1 0  9993
2 48787  87.4384 263.6567 0012085 114.0555  71.2529 15.00669340  3612
ONEWEB-0214             
1 48788U 21045X   21185.91667824 -.01001927  00000-0 -96570-1 0  9997
2 48788  87.4235 263.6949 0008293 123.7430 310.4150 14.95874879  3602
ONEWEB-0221             
1 48789U 21045Y   21185.91667824 -.00979509  00000-0 -67175-1 0  9996
2 48789  87.4760 263.5894 0013188 108.8368  65.9450 15.09033963  3632
ONEWEB-0213             
1 48790U 21045Z   21185.91667824 -.00970677  00000-0 -69268-1 0  9990
2 48790  87.4676 263.5921 0013466 117.2684 313.9544 15.07550937  3627
ONEWEB-0212             
1 48791U 21045AA  21185.91667824 -.00985407  00000-0 -68740-1 0  9992
2 48791  87.4705 263.6028 0013525 115.3409 355.2754 15.08426141  3622
ONEWEB-0227             
1 48792U 21045AB  21185.91667824 -.01001374  00000-0 -80787-1 0  9991
2 48792  87.4770 263.6833 0010812 114.4323 203.1003 15.02655427  3634
ONEWEB-0226             
1 48793U 21045AC  21185.91667824 -.01004403  00000-0 -83137-1 0  9990
2 48793  87.4334 263.6572 0011930 135.3965 280.8948 15.01680469  3618
ONEWEB-0224             
1 48794U 21045AD  21185.91667824 -.01013404  00000-0 -10481+0 0  9992
2 48794  87.3984 263.6977 0010154 121.1238 154.5002 14.93124074  3603
ONEWEB-0233             
1 48795U 21045AE  21185.91667824 -.01009117  00000-0 -10133+0 0  9993
2 48795  87.4088 263.7066 0009060 126.5237 223.8865 14.94286021  3612
ONEWEB-0190             
1 48796U 21045AF  21185.91667824 -.00992651  00000-0 -81553-1 0  9993
2 48796  87.4364 263.6708 0011438 136.2132 265.5644 15.01937441  3612
ONEWEB-0236             
1 48797U 21045AG  21185.91667824 -.01007961  00000-0 -97903-1 0  9992
2 48797  87.4102 263.6725 0008414 129.9890 336.0618 14.95590655  3611
ONEWEB-0248             
1 48798U 21045AH  21185.91667824 -.00969037  00000-0 -63033-1 0  9990
2 48798  87.4670 263.5845 0011301 131.2428 279.5545 15.10946111  3638
ONEWEB-0225             
1 48799U 21045AJ  21185.91667824 -.00971402  00000-0 -61049-1 0  9995
2 48799  87.4619 263.5955 0008804 130.0444 197.6050 15.12223051  3637
ONEWEB-0215             
1 48800U 21045AK  21185.91667824 -.01006776  00000-0 -94319-1 0  9998
2 48800  87.4204 263.6758 0010283 135.5817  89.0113 14.96969065  3604
ONEWEB-0216             
1 48801U 21045AL  21185.91667824 -.01015339  00000-0 -95090-1 0  9991
2 48801  87.4462 263.7328 0009194 134.7490  66.5229 14.97019110  3608
ONEWEB-0239             
1 48802U 21045AM  21185.91667824 -.00981134  00000-0 -81412-1 0  9999
2 48802  87.4475 263.6564 0013196 130.0262 332.4641 15.01505108  3614
ONEWEB-0249             
1 48967U 21061A   21185.91667824  .00023754  00000-0  58199-3 0  9990
2 48967  87.3979 236.2350 0003831 279.4552 151.1718 15.40615675  1611
ONEWEB-0250             
1 48968U 21061B   21185.91667824  .00023367  00000-0  58400-3 0  9996
2 48968  87.3990 236.2340 0005008 244.8051 178.6309 15.40006827  1637
ONEWEB-0251             
1 48969U 21061C   21185.91667824  .00023707  00000-0  61640-3 0  9995
2 48969  87.3972 236.2343 0007817 289.5298 119.5096 15.38777038  1688
ONEWEB-0252             
1 48970U 21061D   21185.91667824  .00023129  00000-0  55163-3 0  9998
2 48970  87.4005 236.2352 0007232 270.1844 169.8673 15.41410462  1635
ONEWEB-0253             
1 48971U 21061E   21185.91667824  .00022534  00000-0  61060-3 0  9991
2 48971  87.3994 236.2399 0004669 253.5462 140.8974 15.37524847  1636
ONEWEB-0254             
1 48972U 21061F   21185.91667824  .00023376  00000-0  60558-3 0  9998
2 48972  87.3985 236.2376 0007471 278.5534 131.8181 15.38891478  1686
ONEWEB-0255             
1 48973U 21061G   21185.91667824  .00023580  00000-0  58004-3 0  9999
2 48973  87.3998 236.2338 0003326 276.9927 152.2079 15.40496478  1612
ONEWEB-0256             
1 48974U 21061H   21185.91667824  .00023900  00000-0  61345-3 0  9998
2 48974  87.4001 236.2367 0008026 275.8533 137.7627 15.39170596  1653
ONEWEB-0257             
1 48975U 21061J   21185.91667824  .00023340  00000-0  58788-3 0  9994
2 48975  87.3992 236.2332 0006001 248.0535 172.5352 15.39763309  1684
ONEWEB-0258             
1 48976U 21061K   21185.91667824  .00022487  00000-0  60461-3 0  9997
2 48976  87.4006 236.2409 0004121 265.6873 131.6009 15.37768223  1614
ONEWEB-0259             
1 48977U 21061L   21185.91667824  .00023328  00000-0  55181-3 0  9996
2 48977  87.3997 236.2331 0008024 264.6740 178.3118 15.41652586  1635
ONEWEB-0260             
1 48978U 21061M   21185.91667824  .00022653  00000-0  61151-3 0  9991
2 48978  87.3967 236.2369 0004407 258.7751 136.9986 15.37643240  1636
ONEWEB-0261             
1 48979U 21061N   21185.91667824  .00022984  00000-0  54577-3 0  9993
2 48979  87.3980 236.2300 0007650 266.9816 174.6776 15.41540068  1638
ONEWEB-0262             
1 48980U 21061P   21185.91667824  .00023714  00000-0  57633-3 0  9993
2 48980  87.3989 236.2339 0004827 282.8767 150.5934 15.40856681  1613
ONEWEB-0263             
1 48981U 21061Q   21185.91667824  .00023703  00000-0  59477-3 0  9990
2 48981  87.3986 236.2372 0005518 246.7979 175.1704 15.39881018  1641
ONEWEB-0264             
1 48982U 21061R   21185.91667824  .00022939  00000-0  60147-3 0  9997
2 48982  87.3978 236.2364 0006470 288.4262 117.7438 15.38529315  1677
ONEWEB-0265             
1 48983U 21061S   21185.91667824  .00023761  00000-0  58415-3 0  9997
2 48983  87.3984 236.2333 0003432 268.3645 161.0448 15.40514170  1644
ONEWEB-0266             
1 48984U 21061T   21185.91667824  .00023155  00000-0  59412-3 0  9993
2 48984  87.3957 236.2354 0007102 265.1167 149.0159 15.39189555  1637
